STARLINK-35669          
1 66396U 25257S   25334.83336806  .00008198  00000+0  15540-3 0  9998
2 66396  53.1595 320.7267 0001450  95.8105 289.1873 15.49293161  4581
STARLINK-35510          
1 66397U 25257T   25334.83336806  .00123439  00000+0  21988-2 0  9997
2 66397  53.1596 320.7231 0001009  96.0525 290.8858 15.49228704  4586
STARLINK-35642          
1 66398U 25257U   25334.83336806  .00116149  00000+0  20712-2 0  9992
2 66398  53.1595 320.7186 0001567  92.9850 295.8736 15.49230450  4581
STARLINK-35657          
1 66399U 25257V   25334.83336806  .00113718  00000+0  20286-2 0  9998
2 66399  53.1595 320.7146 0001674  93.7787 296.9985 15.49231227  4586
STARLINK-35667          
1 66400U 25257W   25334.83336806  .00113121  00000+0  20184-2 0  9996
2 66400  53.1595 320.7065 0001528  87.4652 307.0782 15.49227279  4589
STARLINK-35668          
1 66401U 25257X   25334.83336806  .00113766  00000+0  20294-2 0  9994
2 66401  53.1595 320.7024 0001566  94.8690 301.6588 15.49231015  4588
STARLINK-35644          
1 66402U 25257Y   25334.83336806  .00111111  00000+0  19829-2 0  9999
2 66402  53.1594 320.7105 0001594  95.7972 296.8972 15.49232137  4580
STARLINK-35602          
1 66403U 25257Z   25334.83336806 -.00009817  00000+0 -16870-3 0  9995
2 66403  53.1595 320.6987 0001646  96.8469 301.5756 15.49300991  4588
STARLINK-35691          
1 66404U 25257AA  25334.83336806 -.00011971  00000+0 -20755-3 0  9997
2 66404  53.1595 320.6943 0001554  97.6486 302.6924 15.49301822  4580
STARLINK-35683          
1 66405U 25257AB  25334.83336806  .00110839  00000+0  19781-2 0  9995
2 66405  53.1595 320.6897 0001543  95.2829 306.9965 15.49231933  4422
STARLINK-34840          
1 66406U 25257AC  25334.58335648  .00075586  00000+0  13565-2 0  9994
2 66406  53.1595 321.8750 0001623  84.1868   8.5888 15.49256631  4480
STARLINK-35686          
1 66407U 25257AD  25334.83336806  .00111287  00000+0  19858-2 0  9990
2 66407  53.1594 320.6859 0001644  92.7780 311.4132 15.49234308  4584
